{
    "links": {
        "self": "http://www.neowsapp.com/rest/v1/neo/3514798?api_key=iIulBulltgU6a56xZRHN4H3l9WmuAYTsLGpBGhQ2"
    },
    "id": "3514798",
    "neo_reference_id": "3514798",
    "name": "(2010 FG81)",
    "designation": "2010 FG81",
    "nasa_jpl_url": "http://ssd.jpl.nasa.gov/sbdb.cgi?sstr=3514798",
    "absolute_magnitude_h": 23.3,
    "estimated_diameter": {
        "kilometers": {
            "estimated_diameter_min": 0.058150704,
            "estimated_diameter_max": 0.130028927
        },
        "meters": {
            "estimated_diameter_min": 58.1507039646,
            "estimated_diameter_max": 130.0289270043
        },
        "miles": {
            "estimated_diameter_min": 0.0361331611,
            "estimated_diameter_max": 0.0807962044
        },
        "feet": {
            "estimated_diameter_min": 190.7831555951,
            "estimated_diameter_max": 426.6041048727
        }
    },
    "is_potentially_hazardous_asteroid": false,
    "close_approach_data": [
        {
            "close_approach_date": "2010-04-01",
            "close_approach_date_full": "2010-Apr-01 04:15",
            "epoch_date_close_approach": 1270095300000,
            "relative_velocity": {
                "kilometers_per_second": "7.3643120849",
                "kilometers_per_hour": "26511.5235055477",
                "miles_per_hour": "16473.2297026554"
            },
            "miss_distance": {
                "astronomical": "0.0853759225",
                "lunar": "33.2112338525",
                "kilometers": "12772056.155285075",
                "miles": "7936187.688981035"
            },
            "orbiting_body": "Earth"
        },
        {
            "close_approach_date": "2040-01-25",
            "close_approach_date_full": "2040-Jan-25 20:03",
            "epoch_date_close_approach": 2211134580000,
            "relative_velocity": {
                "kilometers_per_second": "18.5797936346",
                "kilometers_per_hour": "66887.2570846334",
                "miles_per_hour": "41561.1403812824"
            },
            "miss_distance": {
                "astronomical": "0.4303994319",
                "lunar": "167.4253790091",
                "kilometers": "64386838.261450053",
                "miles": "40008126.0942066114"
            },
            "orbiting_body": "Earth"
        },
        {
            "close_approach_date": "2087-01-28",
            "close_approach_date_full": "2087-Jan-28 09:32",
            "epoch_date_close_approach": 3694584720000,
            "relative_velocity": {
                "kilometers_per_second": "17.4168925402",
                "kilometers_per_hour": "62700.8131448294",
                "miles_per_hour": "38959.8469232414"
            },
            "miss_distance": {
                "astronomical": "0.3893756973",
                "lunar": "151.4671462497",
                "kilometers": "58249774.945844751",
                "miles": "36194731.7793335238"
            },
            "orbiting_body": "Earth"
        },
        {
            "close_approach_date": "2089-05-10",
            "close_approach_date_full": "2089-May-10 14:36",
            "epoch_date_close_approach": 3766574160000,
            "relative_velocity": {
                "kilometers_per_second": "16.5697203082",
                "kilometers_per_hour": "59650.9931096716",
                "miles_per_hour": "37064.8073575068"
            },
            "miss_distance": {
                "astronomical": "0.3874240236",
                "lunar": "150.7079451804",
                "kilometers": "57957808.717389732",
                "miles": "36013312.3775010216"
            },
            "orbiting_body": "Earth"
        },
        {
            "close_approach_date": "2134-01-26",
            "close_approach_date_full": "2134-Jan-26 09:33",
            "epoch_date_close_approach": 5177554380000,
            "relative_velocity": {
                "kilometers_per_second": "19.101437801",
                "kilometers_per_hour": "68765.1760835996",
                "miles_per_hour": "42728.0062170567"
            },
            "miss_distance": {
                "astronomical": "0.4467634127",
                "lunar": "173.7909675403",
                "kilometers": "66834854.933850949",
                "miles": "41529253.1188391362"
            },
            "orbiting_body": "Earth"
        }
    ],
    "orbital_data": {
        "orbit_id": "16",
        "orbit_determination_date": "2020-11-11 14:06:21",
        "first_observation_date": "2010-03-11",
        "last_observation_date": "2010-04-16",
        "data_arc_in_days": 36,
        "observations_used": 46,
        "orbit_uncertainty": "7",
        "minimum_orbit_intersection": ".0184894",
        "jupiter_tisserand_invariant": "4.164",
        "epoch_osculation": "2459000.5",
        "eccentricity": ".3933329201102466",
        "semi_major_axis": "1.659473162791337",
        "inclination": "7.968436828912676",
        "ascending_node_longitude": "344.1368057841437",
        "orbital_period": "780.8251204704292",
        "perihelion_distance": "1.006747737826034",
        "perihelion_argument": "191.2526316939008",
        "aphelion_distance": "2.312198587756641",
        "perihelion_time": "2459181.202181650908",
        "mean_anomaly": "276.6871253384699",
        "mean_motion": ".4610507405078211",
        "equinox": "J2000",
        "orbit_class": {
            "orbit_class_type": "APO",
            "orbit_class_description": "Near-Earth asteroid orbits which cross the Earth’s orbit similar to that of 1862 Apollo",
            "orbit_class_range": "a (semi-major axis) > 1.0 AU; q (perihelion) < 1.017 AU"
        }
    },
    "is_sentry_object": false
}